[{"OBJECT_NAME":"STARLINK-34588","OBJECT_ID":"2025-144F","EPOCH":"2026-03-09T18:38:49.778592","MEAN_MOTION":15.30199915,"ECCENTRICITY":0.00012163,"INCLINATION":53.158,"RA_OF_ASC_NODE":180.7507,"ARG_OF_PERICENTER":82.8633,"MEAN_ANOMALY":277.2506,"EPHEMERIS_TYPE":0,"CLASSIFICATION_TYPE":"U","NORAD_CAT_ID":64729,"ELEMENT_SET_NO":999,"REV_AT_EPOCH":3972,"BSTAR":0.00071808352,"MEAN_MOTION_DOT":0.00020968,"MEAN_MOTION_DDOT":0},{"OBJECT_NAME":"CZ-6A DEB","OBJECT_ID":"2024-140ABG","EPOCH":"2026-03-09T16:43:29.524800","MEAN_MOTION":15.18896608,"ECCENTRICITY":0.00616087,"INCLINATION":89.2171,"RA_OF_ASC_NODE":295.9508,"ARG_OF_PERICENTER":79.2706,"MEAN_ANOMALY":281.5467,"EPHEMERIS_TYPE":0,"CLASSIFICATION_TYPE":"U","NORAD_CAT_ID":61498,"ELEMENT_SET_NO":999,"REV_AT_EPOCH":8006,"BSTAR":0.0048163661,"MEAN_MOTION_DOT":0.0010689,"MEAN_MOTION_DDOT":0}]
